[{"OBJECT_NAME":"LEMUR-2-DEMBITZ","OBJECT_ID":"2017-042T","EPOCH":"2026-03-09T11:23:53.232288","MEAN_MOTION":15.26947128,"ECCENTRICITY":0.00069617,"INCLINATION":97.3807,"RA_OF_ASC_NODE":250.9241,"ARG_OF_PERICENTER":17.1421,"MEAN_ANOMALY":343.0051,"EPHEMERIS_TYPE":0,"CLASSIFICATION_TYPE":"U","NORAD_CAT_ID":42842,"ELEMENT_SET_NO":999,"REV_AT_EPOCH":47311,"BSTAR":0.00076560825,"MEAN_MOTION_DOT":0.00020231,"MEAN_MOTION_DDOT":0},{"OBJECT_NAME":"STARLINK-30862","OBJECT_ID":"2024-038K","EPOCH":"2026-03-09T05:30:16.655616","MEAN_MOTION":15.27577329,"ECCENTRICITY":9.632e-5,"INCLINATION":43.0042,"RA_OF_ASC_NODE":18.7746,"ARG_OF_PERICENTER":265.5721,"MEAN_ANOMALY":94.502,"EPHEMERIS_TYPE":0,"CLASSIFICATION_TYPE":"U","NORAD_CAT_ID":59032,"ELEMENT_SET_NO":999,"REV_AT_EPOCH":11470,"BSTAR":-6.781925e-6,"MEAN_MOTION_DOT":-4.49e-6,"MEAN_MOTION_DDOT":0}]
