LEMUR-2-DEMBITZ         
1 42842U 17042T   26068.47492167  .00020231  00000+0  76561-3 0  9991
2 42842  97.3807 250.9241 0006961  17.1421 343.0051 15.26947128473114
STARLINK-30862          
1 59032U 24038K   26068.22935944 -.00000449  00000+0 -67819-5 0  9990
2 59032  43.0042  18.7746 0000963 265.5721  94.5020 15.27577329114704
